{
"type": "FeatureCollection",
"name": "mountains",
"crs": { "type": "name", "properties": { "name": "urn:ogc:def:crs:OGC:1.3:CRS84" } },
"features": [


    { "type": "Feature", "properties": {
"fid": 1,
"highest peak": "Aconagua",
"labellat": -32.653,
"labellon": -70.011,
"highest peak country": "Argentina",
"name": "Andes"
},
    "geometry": { "type": "Polygon", "coordinates": [ [ [ -63.588867187499879, 9.752370139169843 ], [ -68.730468749999872, 9.492408153762087 ], [ -72.048339843749872, 7.166300381899709 ], [ -71.740722656249872, 6.642782900352707 ], [ -75.432128906249872, 1.384142692788504 ], [ -77.233886718749858, 0.263670944333162 ], [ -77.761230468749886, -4.937724274305968 ], [ -75.541992187499872, -6.577303118127359 ], [ -75.476074218749886, -9.535748998137066 ], [ -71.652832031249872, -12.103780891649233 ], [ -69.016113281249872, -13.987376214149853 ], [ -66.401367187499872, -15.919073517985781 ], [ -63.479003906249865, -17.748686651732132 ], [ -62.929687499999886, -19.311143355067937 ], [ -63.303222656249865, -21.18697271412703 ], [ -64.885253906249872, -24.106647179204973 ], [ -65.588378906249872, -25.145284610688218 ], [ -65.434570312499872, -26.608174374036214 ], [ -65.742187499999886, -27.391278222582386 ], [ -65.917968749999886, -27.800209937421343 ], [ -65.786132812499872, -28.459033019731123 ], [ -66.621093749999886, -29.248063243799617 ], [ -68.269042968749872, -29.973970240519638 ], [ -68.510742187499886, -31.240985378024284 ], [ -68.906249999999872, -33.302986181227055 ], [ -69.279785156249886, -34.506556621648478 ], [ -67.280273437499858, -38.13455657705687 ], [ -65.083007812499872, -41.705728515240132 ], [ -67.719726562499872, -46.55886030311958 ], [ -69.565429687499858, -48.980216985377275 ], [ -70.092773437499872, -50.401515322784583 ], [ -72.202148437499872, -52.855864177856098 ], [ -74.047851562499858, -52.16045455774919 ], [ -73.696289062499858, -44.087585028247673 ], [ -70.620117187499886, -33.504759069228989 ], [ -71.367187499999858, -30.883369321695252 ], [ -68.818359374999872, -23.986252599844995 ], [ -69.521484374999872, -19.84939395842607 ], [ -74.135742187499872, -16.130262012038113 ], [ -77.980957031249886, -11.178401873715211 ], [ -80.463867187499872, -5.26600788280898 ], [ -78.837890624999901, 1.032658931174283 ], [ -76.882324218749886, 4.368320420872745 ], [ -76.838378906249872, 7.449624260194342 ], [ -75.322265624999886, 8.320212289519482 ], [ -74.267578124999901, 8.776510716048879 ], [ -73.520507812499915, 9.947208977323582 ], [ -74.201660156249915, 10.76855580772899 ], [ -74.245605468749901, 11.458490752650443 ], [ -73.410644531249915, 11.523087506865078 ], [ -72.641601562499915, 11.415418041937984 ], [ -72.114257812499929, 11.307707707762011 ], [ -72.048339843749915, 10.746969318456559 ], [ -72.751464843749915, 9.340672181977498 ], [ -72.531738281249915, 8.341953075463351 ], [ -70.927734374999915, 9.557417356837853 ], [ -71.037597656249915, 10.76855580772899 ], [ -70.180664062499901, 11.393879232963977 ], [ -69.565429687499915, 11.415418041937984 ], [ -68.378906249999929, 10.746969318456559 ], [ -65.170898437499915, 10.790140750318296 ], [ -60.974121093749908, 10.833305983639049 ], [ -63.588867187499879, 9.752370139169843 ] ] ] } },





   { "type": "Feature", "properties": {
"fid": 2,
"highest peak": "Mount Toubkal",
"labellat": 31.067,
"labellon": -7.918,
"highest peak country": "Morocco",
"name": "Atlas-Betic Cordillera"
},





    "geometry": { "type": "Polygon", "coordinates": [ [ [ -0.373535156249919, 39.181175261584741 ], [ -2.460937499999918, 38.702659307235251 ], [ -3.09814453124992, 38.082689544835247 ], [ -5.273437499999917, 37.247821201551481 ], [ -6.042480468749917, 36.120127589778626 ], [ -5.976562499999918, 35.029996369022768 ], [ -5.581054687499917, 34.434097893591783 ], [ -5.910644531249917, 33.321348526695857 ], [ -6.943359374999918, 31.914867503273221 ], [ -8.951110839843581, 30.93285678304122 ], [ -9.819030761718583, 30.687525926580374 ], [ -9.352111816406081, 30.427361303224174 ], [ -9.651489257812331, 29.909710176267733 ], [ -4.855957031249917, 31.615965936473085 ], [ -3.449707031249918, 31.952162238021984 ], [ -1.142578124999918, 31.970803930430112 ], [ 2.790527343750081, 33.687781758436444 ], [ 5.185546875000077, 34.597041516141275 ], [ 9.140625, 33.925129700069071 ], [ 11.351623535156451, 34.449953615368337 ], [ 11.615295410156454, 36.894997958019836 ], [ 10.132141113281447, 37.463958572761776 ], [ 5.603027343750078, 37.002552672156732 ], [ 3.69415283203144, 37.044216689677384 ], [ 0.859680175781436, 36.578041001496352 ], [ -1.491394042968568, 35.480801595826229 ], [ -2.97454833984357, 35.418153265692723 ], [ -4.122619628906072, 35.342014755845675 ], [ -5.254211425781072, 35.846760876809022 ], [ -3.07617187499992, 36.42128244364666 ], [ -0.79101562499992, 37.753344013103785 ], [ 0.175781250000079, 38.668356101512316 ], [ -0.373535156249919, 39.181175261584741 ] ] ] } },

   { "type": "Feature", "properties": {
"fid": 3,
"highest peak": "Mount Aneto",
"labellat": 42.631,
"labellon": 0.657,
"highest peak country": "Spain",
"name": "Pyrenees"
},  "geometry": { "type": "Polygon", "coordinates": [ [ [ -2.570800781249919, 43.532620426807547 ], [ 0.59326171875008, 43.165122631580402 ], [ 2.768554687500079, 42.827638636239712 ], [ 3.405761718750078, 42.488301979599669 ], [ 3.713378906250078, 42.179688196657011 ], [ 2.526855468750079, 41.738528469356538 ], [ 0.28564453125008, 41.853196437764126 ], [ -2.680664062499919, 42.585444257382314 ], [ -2.98828124999992, 43.181147059397134 ], [ -2.570800781249919, 43.532620426807547 ] ] ] } },





    { "type": "Feature", "properties": {
"fid": 4,
"highest peak": "Mont Blanc",
"labellat": 45.833,
"labellon": 6.865,
"highest peak country": "France / Italy",
"name": "Alps"
}, "geometry": { "type": "Polygon", "coordinates": [ [ [ 7.397918701172071, 47.467092983819775 ], [ 5.892791748047069, 47.199044159441534 ], [ 5.431365966797068, 46.234952796002162 ], [ 5.651092529297068, 45.5005719415702 ], [ 5.563201904297067, 43.915701832154006 ], [ 7.489929199218941, 44.018496486510067 ], [ 7.976074218750085, 44.480830278560113 ], [ 7.536621093750086, 44.918139299582663 ], [ 8.035125732422076, 45.37723168137812 ], [ 9.056854248047078, 45.801999166659513 ], [ 10.545501708984579, 45.535212812840889 ], [ 12.941894531250085, 45.951149686688957 ], [ 13.908691406250082, 46.10370875597782 ], [ 15.051269531250085, 45.951149686688957 ], [ 15.952148437500083, 46.724800374664781 ], [ 15.634918212890835, 47.111261437078369 ], [ 15.019683837890835, 47.632081940261351 ], [ 13.701324462890833, 47.520910478524186 ], [ 11.287078857422078, 47.548725472865762 ], [ 8.826141357422072, 47.452237071838205 ], [ 7.397918701172071, 47.467092983819775 ] ] ] } },








    { "type": "Feature", "properties": {
"fid": 5,
"highest peak": "Galdhøpiggen",
"labellat": 61.637,
"labellon": 8.313,
"highest peak country": "Norway",
"name": "Scandinavian Mountains"
}, "geometry": { "type": "Polygon", "coordinates": [ [ [ 25.576171875000075, 71.335983102211912 ], [ 19.423828125000082, 70.370473845968803 ], [ 14.501953125000082, 67.567334194041436 ], [ 11.64550781250008, 64.895589347771548 ], [ 9.31640625000008, 63.164276097545375 ], [ 5.756835937500075, 62.522457866614374 ], [ 4.570312500000075, 61.616843178479705 ], [ 5.141601562500077, 59.523175535446214 ], [ 6.064453125000077, 58.321029869250133 ], [ 8.964843750000071, 58.482209199931788 ], [ 13.754882812500075, 60.207075066347407 ], [ 19.423828125000068, 65.229101883190722 ], [ 22.148437500000068, 68.504093209965603 ], [ 28.212890625000068, 69.983015102872116 ], [ 32.475585937500071, 69.618859268808833 ], [ 33.662109375000057, 69.967967258493317 ], [ 28.037109375000068, 71.265538757884414 ], [ 25.576171875000075, 71.335983102211912 ] ] ] } },





   { "type": "Feature", "properties": {
"fid": 6,
"highest peak": "Mount Elbert",
"labellat": 39.117,
"labellon": -106.445,
"highest peak country": "USA",
"name": "Rocky Mountains"
}, "geometry": { "type": "Polygon", "coordinates": [ [ [ -136.230468749999943, 68.632550781574423 ], [ -132.846679687499943, 66.346322159779987 ], [ -127.573242187499957, 63.164276097545397 ], [ -125.991210937499943, 60.812780832365121 ], [ -123.793945312499957, 56.231138503410882 ], [ -119.179687499999915, 54.380557368628629 ], [ -111.357421874999915, 47.827908169190962 ], [ -106.962890624999943, 45.413876460818642 ], [ -106.962890624999943, 42.827638636239747 ], [ -110.039062499999943, 41.787697005388047 ], [ -116.015625, 42.309815415684106 ], [ -119.091796874999929, 44.229456568299199 ], [ -119.838867187499957, 46.088471795773572 ], [ -122.915039062499943, 48.414618617490945 ], [ -125.024414062499972, 52.335339071887319 ], [ -131.791992187499943, 56.377418773874311 ], [ -133.813476562499943, 59.589975107733821 ], [ -135.834960937499972, 62.965212013373531 ], [ -137.065429687499972, 65.485626081063813 ], [ -141.503906249999915, 68.015797965018834 ], [ -139.21875, 69.139097104315951 ], [ -136.230468749999943, 68.632550781574423 ] ] ] } },






   { "type": "Feature", "properties": {
"fid": 7,
"highest peak": "Mount Mitchell",
"labellat": 35.765,
"labellon": -82.266,
"highest peak country": "USA",
"name": "Appalachian Mountains"
}, "geometry": { "type": "Polygon", "coordinates": [ [ [ -79.541015624999915, 40.697299008634104 ], [ -81.650390624999915, 38.255436376376743 ], [ -84.814453124999929, 36.368221900848305 ], [ -86.484375, 34.723554927039352 ], [ -82.353515624999901, 34.939985151557586 ], [ -77.34375, 39.14710270769806 ], [ -73.520507812499929, 41.129021347492461 ], [ -71.455078124999929, 43.020713594276074 ], [ -67.631835937499915, 45.935870621188108 ], [ -64.204101562499929, 48.327039130632457 ], [ -62.973632812499929, 52.173931692566335 ], [ -61.215820312499936, 55.266598152309946 ], [ -61.523437499999943, 57.645400667404765 ], [ -63.896484374999936, 60.119618859930299 ], [ -64.6875, 61.047650586029398 ], [ -64.863281249999943, 58.55106062287566 ], [ -65.610351562499943, 54.965001661100047 ], [ -66.752929687499943, 52.975108181733212 ], [ -69.038085937499929, 51.740636164095548 ], [ -72.509765624999929, 47.709761542664054 ], [ -73.608398437499915, 45.47554027158349 ], [ -75.9375, 44.197959039482832 ], [ -77.915039062499915, 42.439674178146873 ], [ -79.541015624999915, 40.697299008634104 ] ] ] } },





   { "type": "Feature", "properties": {
"fid": 8,
"highest peak": "Mount Narodnaya",
"labellat": 65.038,
"labellon": 60.112,
"highest peak country": "Russia",
"name": "Urals"
},  "geometry": { "type": "Polygon", "coordinates": [ [ [ 56.865234374999972, 55.291628486827925 ], [ 55.986328124999979, 52.549636074380174 ], [ 57.568359374999986, 50.916887489242882 ], [ 58.886718749999986, 53.917281015474167 ], [ 60.996093749999979, 55.491303628202246 ], [ 60.380859374999972, 59.811684903654729 ], [ 60.820312499999986, 64.292292480393911 ], [ 64.6875, 66.275698259468257 ], [ 67.587890624999972, 67.075993429552994 ], [ 67.587890624999972, 67.982872617996861 ], [ 67.587890624999972, 68.600505145748087 ], [ 65.039062499999986, 68.439588841798638 ], [ 64.248046874999957, 67.382149778642898 ], [ 60.205078124999979, 65.775743832638184 ], [ 58.535156249999957, 64.557881211507578 ], [ 58.271484374999986, 57.290918126338575 ], [ 56.865234374999972, 55.291628486827925 ] ] ] } },







   { "type": "Feature", "properties": {
"fid": 9,
"highest peak": "Mount Everest",
"labellat": 27.9881,
"labellon": 86.9250,
"highest peak country": "Nepal / China",
"name": "Himalayas"
}, "geometry": { "type": "Polygon", "coordinates": [ [ [ 90.6591796875, 26.843677401109961 ], [ 85.473632812499972, 27.117812842318184 ], [ 77.34375, 30.54333895422727 ], [ 73.696289062499986, 33.779147331283632 ], [ 73.037109375, 34.831841149825863 ], [ 76.596679687499957, 37.00255267215681 ], [ 81.123046875, 36.368221900848347 ], [ 90.0, 37.42252593456034 ], [ 98.876953124999972, 36.368221900848347 ], [ 103.842773437499972, 35.119908570994014 ], [ 105.292968749999957, 33.632915738701904 ], [ 107.753906249999929, 32.82421110161048 ], [ 103.842773437499943, 31.184609135740324 ], [ 103.623046874999929, 29.324720161508051 ], [ 103.359375, 26.804460766543098 ], [ 97.822265624999957, 26.843677401109961 ], [ 95.141601562499943, 28.478348692220173 ], [ 92.197265624999957, 27.156920456877842 ], [ 90.6591796875, 26.843677401109961 ] ] ] } },







   { "type": "Feature", "properties": {
"fid": 10,
"highest peak": "Jengish Chokusu (Victory Peak)",
"labellat": 42.044,
"labellon": 80.127,
"highest peak country": "Kyrgyzstan / China",
"name": "Tian Shan Mountains"
}, "geometry": { "type": "Polygon", "coordinates": [ [ [ 70.136718749999957, 39.993955693970683 ], [ 68.422851562499957, 39.75787999201912 ], [ 65.917968749999957, 40.463666324585077 ], [ 66.928710937499943, 39.181175261584826 ], [ 66.445312499999957, 38.393338888319704 ], [ 68.33770751953152, 38.972221948534234 ], [ 70.095520019531534, 38.561052624467457 ], [ 71.34796142578152, 38.285624966681411 ], [ 72.380676269531534, 37.714244967646906 ], [ 73.017883300781534, 37.10338413422069 ], [ 73.212890624999957, 34.795761534727532 ], [ 76.596679687499929, 37.037639679768681 ], [ 74.599914550781534, 39.023451394057027 ], [ 78.398437499999943, 40.329795743699464 ], [ 82.133789062499943, 41.820455096137785 ], [ 87.670898437499943, 41.228249015182733 ], [ 90.527343749999943, 43.117024121347974 ], [ 95.229492187499929, 42.924251753868184 ], [ 93.471679687499943, 44.103365377909064 ], [ 89.560546874999929, 43.69170790307134 ], [ 86.220703124999957, 44.103365377909064 ], [ 83.056640624999943, 44.60611274517148 ], [ 86.352539062499929, 46.271037472800252 ], [ 85.385742187499943, 47.561700754517418 ], [ 82.221679687499943, 46.362093012047481 ], [ 79.892578124999943, 45.321254361169061 ], [ 78.090820312499943, 43.913723268521551 ], [ 77.036132812499957, 43.181147059397205 ], [ 74.047851562499943, 42.666280705646749 ], [ 70.444335937499957, 42.439674178146916 ], [ 69.697265624999943, 41.393294288782307 ], [ 71.894531249999957, 41.623655390683844 ], [ 73.212890624999957, 40.963307953070945 ], [ 72.993164062499943, 40.430223634506007 ], [ 70.136718749999957, 39.993955693970683 ] ] ] } },







   { "type": "Feature", "properties": {
"fid": 11,
"highest peak": "Mount Kosciuszko",
"labellat": -36.455,
"labellon": 148.263,
"highest peak country": "Australia",
"name": "Great Dividing Range"
},  "geometry": { "type": "Polygon", "coordinates": [ [ [ 143.876953125, -20.035289711355521 ], [ 146.2939453125, -22.897683210651152 ], [ 149.282226562499972, -25.819671943907053 ], [ 150.512695312499972, -28.786918085423149 ], [ 148.974609374999972, -32.528289364828062 ], [ 148.7109375, -34.179997586883609 ], [ 150.732421874999972, -34.216344688437403 ], [ 152.885742187499972, -30.845647420185479 ], [ 152.270507812499972, -26.725986812274758 ], [ 149.150390624999972, -21.800308050975694 ], [ 144.3603515625, -15.85567351000191 ], [ 142.2509765625, -16.65724364536398 ], [ 143.876953125, -20.035289711355521 ] ] ] } },






   { "type": "Feature", "properties": {
"fid": 12,
"highest peak": "Mount Dena",
"labellat": 30.951,
"labellon": 51.440,
"highest peak country": "Iran",
"name": "Zagros Mountains"
}, "geometry": { "type": "Polygon", "coordinates": [ [ [ 55.854492187499936, 27.936180566766406 ], [ 57.590332031249936, 27.547241546250273 ], [ 57.875976562499943, 28.709860843939882 ], [ 57.744140624999936, 29.40131951003854 ], [ 57.392578124999943, 31.297327991401382 ], [ 54.580078124999929, 33.155948300783656 ], [ 52.690429687499943, 36.403599620729807 ], [ 48.076171874999943, 39.215231309102286 ], [ 42.688751220703367, 39.325799417890735 ], [ 38.953399658203367, 39.410733055082737 ], [ 41.967773437499943, 37.701207364738721 ], [ 42.802734374999943, 37.701207364738721 ], [ 44.912109374999943, 35.692994632096045 ], [ 46.582031249999929, 33.229498141446676 ], [ 49.658203124999943, 31.933516761900808 ], [ 50.668945312499929, 30.12612436422166 ], [ 55.107421874999922, 27.780771643345222 ], [ 55.854492187499936, 27.936180566766406 ] ] ] } },







   { "type": "Feature", "properties": {
"fid": 13,
"highest peak": "Denali",
"labellat": 63.069,
"labellon": -151.007,
"highest peak country": "USA",
"name": "Alaskan Range"
},  "geometry": { "type": "Polygon", "coordinates": [ [ [ -147.788085937499773, 64.330391363659885 ], [ -142.954101562499773, 63.40136142059486 ], [ -139.438476562499773, 61.949284881011884 ], [ -136.713867187499773, 60.554578676553454 ], [ -135.747070312499773, 58.505174686787505 ], [ -136.977539062499773, 58.182288761717167 ], [ -142.163085937499744, 60.119618859930313 ], [ -148.315429687499773, 60.250715941503081 ], [ -151.040039062499744, 58.961339555279658 ], [ -159.829101562499716, 55.73948169869157 ], [ -155.698242187499744, 59.18718526575492 ], [ -154.731445312499744, 62.319002786029323 ], [ -150.512695312499773, 63.830979715380998 ], [ -147.788085937499773, 64.330391363659885 ] ] ] } },






{ "type": "Feature", "properties": {
"fid": 14,
"highest peak": "Mount Kirkpatrick",
"labellat": -84.373,
"labellon": 166.686,
"highest peak country": "Antarctica",
"name": "Transantarctic Mountains"
},    "geometry": { "type": "Polygon", "coordinates": [ [ [ -28.238983154296786, -80.143043524846362 ], [ -24.987030029296783, -80.105357609561821 ], [ -21.603240966796768, -82.744589907955572 ], [ -6.31027221679675, -83.619818941566493 ], [ 21.595001220703256, -84.215361597630491 ], [ 57.102813720703324, -84.320695533255417 ], [ 88.391876220703338, -83.735955666934856 ], [ 113.704376220703381, -82.700054756399012 ], [ 126.053009033203423, -80.225453002457414 ], [ 141.433868408203438, -78.475196888481207 ], [ 150.135040283203466, -76.702546351238695 ], [ 154.881134033203494, -74.939421778861856 ], [ 159.099884033203494, -74.84780059305244 ], [ 160.506134033203438, -75.543855427201251 ], [ 159.803009033203466, -77.430214689878738 ], [ 154.881134033203438, -78.527757852342589 ], [ 148.227539062499943, -79.233080976387129 ], [ 138.032226562499972, -80.813383602581894 ], [ 129.217071533203409, -81.545774614008465 ], [ 118.344726562499957, -83.596580603588095 ], [ 106.743164062499972, -84.539270477634091 ], [ 83.649902343750014, -85.05041791286331 ], [ 20.129699707031222, -85.04306632088506 ], [ -5.958709716796742, -84.4920204690021 ], [ -12.638397216796744, -84.303273583843023 ], [ -17.560272216796761, -84.303273583843023 ], [ -23.185272216796758, -83.980411728075296 ], [ -30.040740966796768, -83.381074037181634 ], [ -33.863983154296797, -82.298593385004011 ], [ -31.798553466796797, -80.992292881353194 ], [ -28.238983154296786, -80.143043524846362 ] ] ] } }
]
}
